start=new Date('2022-09-20T00:00:00.000Z').valueOf();
sats=[{"MEAN_MOTION_DDOT":"0.0000000000000","REF_FRAME":"TEME","MEAN_ANOMALY":"270.1483","TLE_LINE2":"2 44733  53.0530 117.2765 0001662  89.9697 270.1483 15.06407652157689","SEMIMAJOR_AXIS":"6925.325","TIME_SYSTEM":"UTC","SITE":"AFETR","OBJECT_TYPE":"PAYLOAD","RA_OF_ASC_NODE":"117.2765","ECCENTRICITY":"0.00016620","ARG_OF_PERICENTER":"89.9697","TLE_LINE1":"1 44733U 19074W   22262.04775489 -.00001158  00000-0 -58867-4 0  9995","EPHEMERIS_TYPE":"0","GP_ID":"212997728","LAUNCH_DATE":"2019-11-11","PERIAPSIS":"546.039","CENTER_NAME":"EARTH","EPOCH":"2022-09-19T01:08:46.022496","COUNTRY_CODE":"US","BSTAR":"-0.00005886700000","ELEMENT_SET_NO":"999","RCS_SIZE":"LARGE","OBJECT_NAME":"STARLINK-1028","APOAPSIS":"548.341","NORAD_CAT_ID":"44733","INCLINATION":"53.0530","FILE":"3577889","OBJECT_ID":"2019-074W","MEAN_MOTION_DOT":"-0.00001158","REV_AT_EPOCH":"15768","DECAY_DATE":null,"MEAN_ELEMENT_THEORY":"SGP4","CLASSIFICATION_TYPE":"U","PERIOD":"95.592","MEAN_MOTION":"15.06407652"},{"MEAN_MOTION_DDOT":"0.0000000000000","SITE":"AFETR","TIME_SYSTEM":"UTC","TLE_LINE2":"2 44734  53.0567  34.2493 0001466  65.0407 295.0734 15.06400782158887","SEMIMAJOR_AXIS":"6925.346","MEAN_ANOMALY":"295.0734","REF_FRAME":"TEME","ECCENTRICITY":"0.00014660","ARG_OF_PERICENTER":"65.0407","RA_OF_ASC_NODE":"34.2493","OBJECT_TYPE":"PAYLOAD","TLE_LINE1":"1 44734U 19074X   22262.72597114 -.00000251  00000-0  20382-5 0  9992","EPHEMERIS_TYPE":"0","CENTER_NAME":"EARTH","PERIAPSIS":"546.196","LAUNCH_DATE":"2019-11-11","GP_ID":"213029994","EPOCH":"2022-09-19T17:25:23.906496","BSTAR":"0.00000203820000","COUNTRY_CODE":"US","RCS_SIZE":"LARGE","ELEMENT_SET_NO":"999","OBJECT_NAME":"STARLINK-1029","NORAD_CAT_ID":"44734","APOAPSIS":"548.226","FILE":"3578162","INCLINATION":"53.0567","OBJECT_ID":"2019-074X","MEAN_MOTION_DOT":"-0.00000251","DECAY_DATE":null,"REV_AT_EPOCH":"15888","MEAN_MOTION":"15.06400782","PERIOD":"95.592","MEAN_ELEMENT_THEORY":"SGP4","CLASSIFICATION_TYPE":"U"},{"NORAD_CAT_ID":"44735","APOAPSIS":"548.264","FILE":"3578162","INCLINATION":"53.0547","BSTAR":"0.00011291000000","COUNTRY_CODE":"US","RCS_SIZE":"LARGE","ELEMENT_SET_NO":"999","OBJECT_NAME":"STARLINK-1030","DECAY_DATE":null,"REV_AT_EPOCH":"15749","MEAN_MOTION":"15.06399460","PERIOD":"95.592","CLASSIFICATION_TYPE":"U","MEAN_ELEMENT_THEORY":"SGP4","OBJECT_ID":"2019-074Y","MEAN_MOTION_DOT":"0.00001401","SITE":"AFETR","TIME_SYSTEM":"UTC","MEAN_ANOMALY":"289.1023","TLE_LINE2":"2 44735  53.0547 134.5716 0001515  71.0130 289.1023 15.06399460157494","SEMIMAJOR_AXIS":"6925.350","REF_FRAME":"TEME","ARG_OF_PERICENTER":"71.0130","ECCENTRICITY":"0.00015150","RA_OF_ASC_NODE":"134.5716","OBJECT_TYPE":"PAYLOAD","MEAN_MOTION_DDOT":"0.0000000000000","CENTER_NAME":"EARTH","PERIAPSIS":"546.166","LAUNCH_DATE":"2019-11-11","GP_ID":"213028743","EPOCH":"2022-09-19T15:41:53.839104","TLE_LINE1":"1 44735U 19074Y   22262.65409536  .00001401  00000-0  11291-3 0  9999","EPHEMERIS_TYPE":"0"},{"CLASSIFICATION_TYPE":"U","MEAN_ELEMENT_THEORY":"SGP4","PERIOD":"95.592","MEAN_MOTION":"15.06397142","REV_AT_EPOCH":"15750","DECAY_DATE":null,"MEAN_MOTION_DOT":"0.00002068","OBJECT_ID":"2019-074Z","INCLINATION":"53.0549","FILE":"3578162","APOAPSIS":"548.331","NORAD_CAT_ID":"44736","RCS_SIZE":"LARGE","OBJECT_NAME":"STARLINK-1031","ELEMENT_SET_NO":"999","COUNTRY_CODE":"US","BSTAR":"0.00015770000000","EPOCH":"2022-09-19T16:03:07.722432","LAUNCH_DATE":"2019-11-11","GP_ID":"213029493","PERIAPSIS":"546.114","CENTER_NAME":"EARTH","EPHEMERIS_TYPE":"0","TLE_LINE1":"1 44736U 19074Z   22262.66883938  .00002068  00000-0  15770-3 0  9999","OBJECT_TYPE":"PAYLOAD","RA_OF_ASC_NODE":"134.5068","ARG_OF_PERICENTER":"79.9648","ECCENTRICITY":"0.00016010","REF_FRAME":"TEME","TLE_LINE2":"2 44736  53.0549 134.5068 0001601  79.9648 280.1522 15.06397142157506","MEAN_ANOMALY":"280.1522","SEMIMAJOR_AXIS":"6925.357","TIME_SYSTEM":"UTC","SITE":"AFETR","MEAN_MOTION_DDOT":"0.0000000000000"},{"CENTER_NAME":"EARTH","GP_ID":"213029744","LAUNCH_DATE":"2019-11-11","PERIAPSIS":"546.300","EPOCH":"2022-09-19T16:19:04.398528","TLE_LINE1":"1 44737U 19074AA  22262.67991202  .00000601  00000-0  59246-4 0  9993","EPHEMERIS_TYPE":"0","TIME_SYSTEM":"UTC","SITE":"AFETR","REF_FRAME":"TEME","TLE_LINE2":"2 44737  53.0543 134.4505 0001331  73.1849 286.9286 15.06397248157503","MEAN_ANOMALY":"286.9286","SEMIMAJOR_AXIS":"6925.357","ARG_OF_PERICENTER":"73.1849","ECCENTRICITY":"0.00013310","OBJECT_TYPE":"PAYLOAD","RA_OF_ASC_NODE":"134.4505","MEAN_MOTION_DDOT":"0.0000000000000","DECAY_DATE":null,"REV_AT_EPOCH":"15750","PERIOD":"95.592","MEAN_MOTION":"15.06397248","CLASSIFICATION_TYPE":"U","MEAN_ELEMENT_THEORY":"SGP4","OBJECT_ID":"2019-074AA","MEAN_MOTION_DOT":"0.00000601","APOAPSIS":"548.144","NORAD_CAT_ID":"44737","INCLINATION":"53.0543","FILE":"3578162","BSTAR":"0.00005924600000","COUNTRY_CODE":"US","OBJECT_NAME":"STARLINK-1032","RCS_SIZE":"LARGE","ELEMENT_SET_NO":"999"},{"TIME_SYSTEM":"UTC","SITE":"AFETR","REF_FRAME":"TEME","TLE_LINE2":"2 44738  53.0545 134.5250 0001328  72.5407 287.5727 15.06400330157495","SEMIMAJOR_AXIS":"6925.348","MEAN_ANOMALY":"287.5727","ECCENTRICITY":"0.00013280","ARG_OF_PERICENTER":"72.5407","RA_OF_ASC_NODE":"134.5250","OBJECT_TYPE":"PAYLOAD","MEAN_MOTION_DDOT":"0.0000000000000","CENTER_NAME":"EARTH","LAUNCH_DATE":"2019-11-11","GP_ID":"213030494","PERIAPSIS":"546.293","EPOCH":"2022-09-19T15:57:49.002336","TLE_LINE1":"1 44738U 19074AB  22262.66515049  .00001025  00000-0  87690-4 0  9999","EPHEMERIS_TYPE":"0","APOAPSIS":"548.132","NORAD_CAT_ID":"44738","INCLINATION":"53.0545","FILE":"3578162","BSTAR":"0.00008769000000","COUNTRY_CODE":"US","ELEMENT_SET_NO":"999","RCS_SIZE":"LARGE","OBJECT_NAME":"STARLINK-1033","DECAY_DATE":null,"REV_AT_EPOCH":"15749","PERIOD":"95.592","MEAN_MOTION":"15.06400330","CLASSIFICATION_TYPE":"U","MEAN_ELEMENT_THEORY":"SGP4","OBJECT_ID":"2019-074AB","MEAN_MOTION_DOT":"0.00001025"},{"OBJECT_ID":"2019-074AC","MEAN_MOTION_DOT":"0.00013595","REV_AT_EPOCH":"15768","DECAY_DATE":null,"MEAN_ELEMENT_THEORY":"SGP4","CLASSIFICATION_TYPE":"U","MEAN_MOTION":"15.17882886","PERIOD":"94.869","COUNTRY_CODE":"US","BSTAR":"0.00067684000000","RCS_SIZE":"LARGE","OBJECT_NAME":"STARLINK-1034","ELEMENT_SET_NO":"999","NORAD_CAT_ID":"44739","APOAPSIS":"512.802","FILE":"3578162","INCLINATION":"52.9959","TLE_LINE1":"1 44739U 19074AC  22262.61641588  .00013595  00000-0  67684-3 0  9998","EPHEMERIS_TYPE":"0","PERIAPSIS":"511.683","LAUNCH_DATE":"2019-11-11","GP_ID":"213029244","CENTER_NAME":"EARTH","EPOCH":"2022-09-19T14:47:38.332032","MEAN_MOTION_DDOT":"0.0000000000000","SEMIMAJOR_AXIS":"6890.377","TLE_LINE2":"2 44739  52.9959 117.2836 0000812 120.6848 239.4226 15.17882886157685","MEAN_ANOMALY":"239.4226","REF_FRAME":"TEME","SITE":"AFETR","TIME_SYSTEM":"UTC","RA_OF_ASC_NODE":"117.2836","OBJECT_TYPE":"PAYLOAD","ECCENTRICITY":"0.00008120","ARG_OF_PERICENTER":"120.6848"},{"EPHEMERIS_TYPE":"0","TLE_LINE1":"1 44740U 19074AD  22262.67621205  .00001265  00000-0  10378-3 0  9999","EPOCH":"2022-09-19T16:13:44.721120","CENTER_NAME":"EARTH","GP_ID":"213028994","LAUNCH_DATE":"2019-11-11","PERIAPSIS":"546.028","MEAN_MOTION_DDOT":"0.0000000000000","ECCENTRICITY":"0.00016970","ARG_OF_PERICENTER":"72.0099","OBJECT_TYPE":"PAYLOAD","RA_OF_ASC_NODE":"134.4717","TIME_SYSTEM":"UTC","SITE":"AFETR","REF_FRAME":"TEME","SEMIMAJOR_AXIS":"6925.338","TLE_LINE2":"2 44740  53.0543 134.4717 0001697  72.0099 288.1075 15.06403420157502","MEAN_ANOMALY":"288.1075","MEAN_MOTION_DOT":"0.00001265","OBJECT_ID":"2019-074AD","PERIOD":"95.592","MEAN_MOTION":"15.06403420","CLASSIFICATION_TYPE":"U","MEAN_ELEMENT_THEORY":"SGP4","DECAY_DATE":null,"REV_AT_EPOCH":"15750","RCS_SIZE":"LARGE","ELEMENT_SET_NO":"999","OBJECT_NAME":"STARLINK-1035","BSTAR":"0.00010378000000","COUNTRY_CODE":"US","INCLINATION":"53.0543","FILE":"3578162","APOAPSIS":"548.378","NORAD_CAT_ID":"44740"},{"CENTER_NAME":"EARTH","PERIAPSIS":"546.217","LAUNCH_DATE":"2019-11-11","GP_ID":"213030244","EPOCH":"2022-09-19T18:05:12.547680","TLE_LINE1":"1 44741U 19074AE  22262.75361745  .00002147  00000-0  16297-3 0  9995","EPHEMERIS_TYPE":"0","SITE":"AFETR","TIME_SYSTEM":"UTC","SEMIMAJOR_AXIS":"6925.356","TLE_LINE2":"2 44741  53.0549 134.1203 0001449  87.6205 272.4950 15.06397711157516","MEAN_ANOMALY":"272.4950","REF_FRAME":"TEME","ARG_OF_PERICENTER":"87.6205","ECCENTRICITY":"0.00014490","RA_OF_ASC_NODE":"134.1203","OBJECT_TYPE":"PAYLOAD","MEAN_MOTION_DDOT":"0.0000000000000","DECAY_DATE":null,"REV_AT_EPOCH":"15751","MEAN_MOTION":"15.06397711","PERIOD":"95.592","MEAN_ELEMENT_THEORY":"SGP4","CLASSIFICATION_TYPE":"U","OBJECT_ID":"2019-074AE","MEAN_MOTION_DOT":"0.00002147","NORAD_CAT_ID":"44741","APOAPSIS":"548.224","FILE":"3578162","INCLINATION":"53.0549","BSTAR":"0.00016297000000","COUNTRY_CODE":"US","ELEMENT_SET_NO":"999","RCS_SIZE":"LARGE","OBJECT_NAME":"STARLINK-1036"},{"BSTAR":"0.00123020000000","COUNTRY_CODE":"US","ELEMENT_SET_NO":"999","RCS_SIZE":"LARGE","OBJECT_NAME":"STARLINK-1037","APOAPSIS":"508.508","NORAD_CAT_ID":"44742","INCLINATION":"52.9936","FILE":"3577889","OBJECT_ID":"2019-074AF","MEAN_MOTION_DOT":"0.00026138","DECAY_DATE":null,"REV_AT_EPOCH":"15768","PERIOD":"94.775","MEAN_MOTION":"15.19395985","CLASSIFICATION_TYPE":"U","MEAN_ELEMENT_THEORY":"SGP4","MEAN_MOTION_DDOT":"0.0000000000000","TIME_SYSTEM":"UTC","SITE":"AFETR","REF_FRAME":"TEME","SEMIMAJOR_AXIS":"6885.802","TLE_LINE2":"2 44742  52.9936 113.7644 0001221  81.1893 278.9239 15.19395985157681","MEAN_ANOMALY":"278.9239","ARG_OF_PERICENTER":"81.1893","ECCENTRICITY":"0.00012210","OBJECT_TYPE":"PAYLOAD","RA_OF_ASC_NODE":"113.7644","TLE_LINE1":"1 44742U 19074AF  22261.99930747  .00026138  00000-0  12302-2 0  9993","EPHEMERIS_TYPE":"0","CENTER_NAME":"EARTH","GP_ID":"212997979","LAUNCH_DATE":"2019-11-11","PERIAPSIS":"506.826","EPOCH":"2022-09-18T23:59:00.165408"}];
